start=new Date('2022-05-07T00:00:00.000Z').valueOf();
sats=[{"MEAN_MOTION":"15.06405866","CENTER_NAME":"EARTH","ECCENTRICITY":"0.00013640","GP_ID":"202861862","SEMIMAJOR_AXIS":"6925.331","OBJECT_TYPE":"PAYLOAD","MEAN_ANOMALY":"159.7608","FILE":"3432208","REF_FRAME":"TEME","EPOCH":"2022-05-06T14:00:01.000224","TLE_LINE2":"2 48692  53.0531 255.4138 0001364  77.1267 159.7608 15.06405866  3606","ELEMENT_SET_NO":"999","SITE":"AFETR","REV_AT_EPOCH":"360","DECAY_DATE":null,"COUNTRY_CODE":"US","PERIAPSIS":"546.251","ARG_OF_PERICENTER":"77.1267","TLE_LINE1":"1 48692U 21044BG  22126.58334491 -.00039279  00000-0 -26322-2 0  9999","MEAN_MOTION_DOT":"-0.00039279","MEAN_MOTION_DDOT":"0.0000000000000","OBJECT_ID":"2021-044BG","NORAD_CAT_ID":"48692","TIME_SYSTEM":"UTC","APOAPSIS":"548.140","MEAN_ELEMENT_THEORY":"SGP4","LAUNCH_DATE":"2021-05-26","RA_OF_ASC_NODE":"255.4138","BSTAR":"-0.00263220000000","OBJECT_NAME":"STARLINK-2752","CLASSIFICATION_TYPE":"U","RCS_SIZE":"LARGE","INCLINATION":"53.0531","PERIOD":"95.592","EPHEMERIS_TYPE":"0"},{"RA_OF_ASC_NODE":"260.4125","LAUNCH_DATE":"2021-05-26","BSTAR":"-0.00372640000000","OBJECT_NAME":"STARLINK-2618","RCS_SIZE":"LARGE","CLASSIFICATION_TYPE":"U","INCLINATION":"53.0530","EPHEMERIS_TYPE":"0","PERIOD":"95.592","REV_AT_EPOCH":"361","COUNTRY_CODE":"US","DECAY_DATE":null,"PERIAPSIS":"546.161","ARG_OF_PERICENTER":"67.6301","MEAN_MOTION_DDOT":"0.0000000000000","NORAD_CAT_ID":"48693","MEAN_MOTION_DOT":"-0.00055365","OBJECT_ID":"2021-044BH","TLE_LINE1":"1 48693U 21044BH  22126.58334491 -.00055365  00000-0 -37264-2 0  9991","MEAN_ELEMENT_THEORY":"SGP4","APOAPSIS":"548.229","TIME_SYSTEM":"UTC","FILE":"3432208","REF_FRAME":"TEME","SITE":"AFETR","ELEMENT_SET_NO":"999","TLE_LINE2":"2 48693  53.0530 260.4125 0001493  67.6301  61.7775 15.06405996  3616","EPOCH":"2022-05-06T14:00:01.000224","CENTER_NAME":"EARTH","MEAN_MOTION":"15.06405996","GP_ID":"202862088","ECCENTRICITY":"0.00014930","SEMIMAJOR_AXIS":"6925.330","OBJECT_TYPE":"PAYLOAD","MEAN_ANOMALY":"61.7775"},{"SEMIMAJOR_AXIS":"6925.330","GP_ID":"202874219","ECCENTRICITY":"0.00016770","CENTER_NAME":"EARTH","MEAN_MOTION":"15.06405987","MEAN_ANOMALY":"262.2834","OBJECT_TYPE":"PAYLOAD","FILE":"3432628","SITE":"AFETR","ELEMENT_SET_NO":"999","TLE_LINE2":"2 48694  53.0548 263.9143 0001677  43.1695 262.2834 15.06405987 53601","EPOCH":"2022-05-06T22:00:00.999936","REF_FRAME":"TEME","COUNTRY_CODE":"US","DECAY_DATE":null,"REV_AT_EPOCH":"5360","MEAN_ELEMENT_THEORY":"SGP4","TIME_SYSTEM":"UTC","APOAPSIS":"548.357","NORAD_CAT_ID":"48694","MEAN_MOTION_DDOT":"0.0000000000000","MEAN_MOTION_DOT":"-0.00030185","OBJECT_ID":"2021-044BJ","TLE_LINE1":"1 48694U 21044BJ  22126.91667824 -.00030185  00000-0 -20158-2 0  9995","ARG_OF_PERICENTER":"43.1695","PERIAPSIS":"546.034","RCS_SIZE":"LARGE","CLASSIFICATION_TYPE":"U","OBJECT_NAME":"STARLINK-2748","BSTAR":"-0.00201580000000","RA_OF_ASC_NODE":"263.9143","LAUNCH_DATE":"2021-05-26","EPHEMERIS_TYPE":"0","PERIOD":"95.592","INCLINATION":"53.0548"},{"REF_FRAME":"TEME","ELEMENT_SET_NO":"999","SITE":"AFETR","EPOCH":"2022-05-06T22:00:00.999936","TLE_LINE2":"2 48695  53.0547 263.9128 0001631  54.7964 155.7640 15.06384107 53679","FILE":"3432502","MEAN_ANOMALY":"155.7640","OBJECT_TYPE":"PAYLOAD","GP_ID":"202870760","ECCENTRICITY":"0.00016310","SEMIMAJOR_AXIS":"6925.397","CENTER_NAME":"EARTH","MEAN_MOTION":"15.06384107","INCLINATION":"53.0547","EPHEMERIS_TYPE":"0","PERIOD":"95.593","OBJECT_NAME":"STARLINK-2616","RCS_SIZE":"LARGE","CLASSIFICATION_TYPE":"U","RA_OF_ASC_NODE":"263.9128","LAUNCH_DATE":"2021-05-26","BSTAR":"0.00047532000000","MEAN_MOTION_DDOT":"0.0000000000000","OBJECT_ID":"2021-044BK","MEAN_MOTION_DOT":"0.00006802","NORAD_CAT_ID":"48695","TLE_LINE1":"1 48695U 21044BK  22126.91667824  .00006802  00000-0  47532-3 0  9999","MEAN_ELEMENT_THEORY":"SGP4","APOAPSIS":"548.392","TIME_SYSTEM":"UTC","PERIAPSIS":"546.133","ARG_OF_PERICENTER":"54.7964","COUNTRY_CODE":"US","DECAY_DATE":null,"REV_AT_EPOCH":"5367"},{"GP_ID":"202861362","ECCENTRICITY":"0.00015950","SEMIMAJOR_AXIS":"6925.323","CENTER_NAME":"EARTH","MEAN_MOTION":"15.06408424","MEAN_ANOMALY":"286.2728","OBJECT_TYPE":"PAYLOAD","FILE":"3432208","REF_FRAME":"TEME","SITE":"AFETR","ELEMENT_SET_NO":"999","EPOCH":"2022-05-06T09:48:08.085888","TLE_LINE2":"2 48696  53.0538 271.2414 0001595  73.8436 286.2728 15.06408424 52625","COUNTRY_CODE":"US","DECAY_DATE":null,"REV_AT_EPOCH":"5262","NORAD_CAT_ID":"48696","MEAN_MOTION_DDOT":"0.0000000000000","MEAN_MOTION_DOT":"0.00004747","OBJECT_ID":"2021-044BL","TLE_LINE1":"1 48696U 21044BL  22126.40842692  .00004747  00000-0  33731-3 0  9994","MEAN_ELEMENT_THEORY":"SGP4","APOAPSIS":"548.292","TIME_SYSTEM":"UTC","PERIAPSIS":"546.083","ARG_OF_PERICENTER":"73.8436","OBJECT_NAME":"STARLINK-2753","RCS_SIZE":"LARGE","CLASSIFICATION_TYPE":"U","RA_OF_ASC_NODE":"271.2414","LAUNCH_DATE":"2021-05-26","BSTAR":"0.00033731000000","INCLINATION":"53.0538","EPHEMERIS_TYPE":"0","PERIOD":"95.592"},{"LAUNCH_DATE":"2021-05-26","RA_OF_ASC_NODE":"269.2875","BSTAR":"-0.00006758300000","OBJECT_NAME":"STARLINK-2715","RCS_SIZE":"LARGE","CLASSIFICATION_TYPE":"U","INCLINATION":"53.0548","PERIOD":"95.591","EPHEMERIS_TYPE":"0","REV_AT_EPOCH":"5352","DECAY_DATE":null,"COUNTRY_CODE":"US","PERIAPSIS":"546.089","ARG_OF_PERICENTER":"60.6305","TLE_LINE1":"1 48697U 21044BM  22126.83598597 -.00001288  00000-0 -67583-4 0  9996","OBJECT_ID":"2021-044BM","MEAN_MOTION_DDOT":"0.0000000000000","MEAN_MOTION_DOT":"-0.00001288","NORAD_CAT_ID":"48697","APOAPSIS":"548.261","TIME_SYSTEM":"UTC","MEAN_ELEMENT_THEORY":"SGP4","FILE":"3432527","REF_FRAME":"TEME","TLE_LINE2":"2 48697  53.0548 269.2875 0001568  60.6305 299.4840 15.06412487 53529","EPOCH":"2022-05-06T20:03:49.187808","SITE":"AFETR","ELEMENT_SET_NO":"999","MEAN_MOTION":"15.06412487","CENTER_NAME":"EARTH","ECCENTRICITY":"0.00015680","GP_ID":"202871989","SEMIMAJOR_AXIS":"6925.310","OBJECT_TYPE":"PAYLOAD","MEAN_ANOMALY":"299.4840"},{"RA_OF_ASC_NODE":"257.9571","LAUNCH_DATE":"2021-06-30","BSTAR":"-0.00091571000000","OBJECT_NAME":"STARLINK-3003","CLASSIFICATION_TYPE":"U","RCS_SIZE":"LARGE","INCLINATION":"97.5369","EPHEMERIS_TYPE":"0","PERIOD":"94.974","REV_AT_EPOCH":"4823","COUNTRY_CODE":"US","DECAY_DATE":null,"PERIAPSIS":"513.443","ARG_OF_PERICENTER":"163.7751","MEAN_MOTION_DOT":"-0.00017704","MEAN_MOTION_DDOT":"0.0000000000000","OBJECT_ID":"2021-059A","NORAD_CAT_ID":"48879","TLE_LINE1":"1 48879U 21059A   22126.91667824 -.00017704  00000-0 -91571-3 0  9996","MEAN_ELEMENT_THEORY":"SGP4","APOAPSIS":"521.233","TIME_SYSTEM":"UTC","FILE":"3432309","REF_FRAME":"TEME","SITE":"AFETR","ELEMENT_SET_NO":"999","EPOCH":"2022-05-06T22:00:00.999936","TLE_LINE2":"2 48879  97.5369 257.9571 0005649 163.7751 350.9584 15.16200567 48231","CENTER_NAME":"EARTH","MEAN_MOTION":"15.16200567","GP_ID":"202866280","ECCENTRICITY":"0.00056490","SEMIMAJOR_AXIS":"6895.473","OBJECT_TYPE":"PAYLOAD","MEAN_ANOMALY":"350.9584"},{"RCS_SIZE":"LARGE","CLASSIFICATION_TYPE":"U","OBJECT_NAME":"STARLINK-3004","BSTAR":"-0.00092439000000","RA_OF_ASC_NODE":"257.9601","LAUNCH_DATE":"2021-06-30","EPHEMERIS_TYPE":"0","PERIOD":"94.977","INCLINATION":"97.5363","COUNTRY_CODE":"US","DECAY_DATE":null,"REV_AT_EPOCH":"4823","MEAN_ELEMENT_THEORY":"SGP4","TIME_SYSTEM":"UTC","APOAPSIS":"521.439","OBJECT_ID":"2021-059B","MEAN_MOTION_DDOT":"0.0000000000000","MEAN_MOTION_DOT":"-0.00017852","NORAD_CAT_ID":"48880","TLE_LINE1":"1 48880U 21059B   22126.91667824 -.00017852  00000-0 -92439-3 0  9996","ARG_OF_PERICENTER":"160.8646","PERIAPSIS":"513.472","FILE":"3432325","SITE":"AFETR","ELEMENT_SET_NO":"999","EPOCH":"2022-05-06T22:00:00.999936","TLE_LINE2":"2 48880  97.5363 257.9601 0005777 160.8646  12.6744 15.16161797 48235","REF_FRAME":"TEME","SEMIMAJOR_AXIS":"6895.591","GP_ID":"202866534","ECCENTRICITY":"0.00057770","CENTER_NAME":"EARTH","MEAN_MOTION":"15.16161797","MEAN_ANOMALY":"12.6744","OBJECT_TYPE":"PAYLOAD"},{"RCS_SIZE":"LARGE","CLASSIFICATION_TYPE":"U","OBJECT_NAME":"STARLINK-3005","BSTAR":"-0.00088143000000","RA_OF_ASC_NODE":"257.9783","LAUNCH_DATE":"2021-06-30","EPHEMERIS_TYPE":"0","PERIOD":"94.967","INCLINATION":"97.5367","COUNTRY_CODE":"US","DECAY_DATE":null,"REV_AT_EPOCH":"4823","MEAN_ELEMENT_THEORY":"SGP4","TIME_SYSTEM":"UTC","APOAPSIS":"520.863","MEAN_MOTION_DDOT":"0.0000000000000","MEAN_MOTION_DOT":"-0.00017098","NORAD_CAT_ID":"48881","OBJECT_ID":"2021-059C","TLE_LINE1":"1 48881U 21059C   22126.91667824 -.00017098  00000-0 -88143-3 0  9996","ARG_OF_PERICENTER":"152.6739","PERIAPSIS":"513.152","FILE":"3432349","SITE":"AFETR","ELEMENT_SET_NO":"999","TLE_LINE2":"2 48881  97.5367 257.9783 0005591 152.6739  16.0947 15.16309630 48230","EPOCH":"2022-05-06T22:00:00.999936","REF_FRAME":"TEME","SEMIMAJOR_AXIS":"6895.142","GP_ID":"202867289","ECCENTRICITY":"0.00055910","CENTER_NAME":"EARTH","MEAN_MOTION":"15.16309630","MEAN_ANOMALY":"16.0947","OBJECT_TYPE":"PAYLOAD"},{"RCS_SIZE":"LARGE","CLASSIFICATION_TYPE":"U","OBJECT_NAME":"STARLINK-3096","BSTAR":"-0.02827900000000","RA_OF_ASC_NODE":"192.9303","LAUNCH_DATE":"2021-09-14","EPHEMERIS_TYPE":"0","PERIOD":"94.798","INCLINATION":"70.0001","COUNTRY_CODE":"US","DECAY_DATE":null,"REV_AT_EPOCH":"365","MEAN_ELEMENT_THEORY":"SGP4","APOAPSIS":"511.041","TIME_SYSTEM":"UTC","MEAN_MOTION_DOT":"-0.00556983","MEAN_MOTION_DDOT":"0.0000000000000","OBJECT_ID":"2021-082B","NORAD_CAT_ID":"49131","TLE_LINE1":"1 49131U 21082B   22126.58334491 -.00556983  00000-0 -28279-1 0  9998","ARG_OF_PERICENTER":"276.5133","PERIAPSIS":"506.533","FILE":"3432208","ELEMENT_SET_NO":"999","SITE":"AFWTR","EPOCH":"2022-05-06T14:00:01.000224","TLE_LINE2":"2 49131  70.0001 192.9303 0003273 276.5133  53.3009 15.19025273  3656","REF_FRAME":"TEME","SEMIMAJOR_AXIS":"6886.922","GP_ID":"202863164","ECCENTRICITY":"0.00032730","CENTER_NAME":"EARTH","MEAN_MOTION":"15.19025273","MEAN_ANOMALY":"53.3009","OBJECT_TYPE":"PAYLOAD"}];
